NORAD_CAT_ID,OBJECT_NAME,OBJECT_TYPE,EPOCH,MEAN_MOTION,ECCENTRICITY,INCLINATION,RA_OF_ASC_NODE,ARG_OF_PERICENTER,MEAN_ANOMALY,BSTAR,MEAN_MOTION_DOT,MEAN_MOTION_DDOT,TLE_LINE0,TLE_LINE1,TLE_LINE2,SEMIMAJOR_AXIS,PERIOD,APOGEE,PERIGEE,DECAYED
49136.0,STARLINK-3084,PAYLOAD,2022-06-01 20:00:01,14.96678417,0.0003294,69.9998,145.4335,264.1852,276.1888,0.0055388,0.00063827,0.0,0 STARLINK-3084,1 49136U 21082G   22152.83334491  .00063827  00000-0  55388-2 0  9990,2 49136  69.9998 145.4335 0003294 264.1852 276.1888 14.96678417  1303,6955.305,96.213,579.461,574.879,0.0
49136.0,STARLINK-3084,PAYLOAD,2022-06-02 16:02:55,14.96710517,0.0003194,69.9984,143.3327,266.5124,93.5669,5.365e-05,5.22e-06,0.0,0 STARLINK-3084,1 49136U 21082G   22153.66869305  .00000522  00000-0  53650-4 0  9994,2 49136  69.9984 143.3327 0003194 266.5124  93.5669 14.96710517 40380,6955.206,96.211,579.2919999999998,574.849,0.0
49136.0,STARLINK-3084,PAYLOAD,2022-06-03 09:41:32,14.96712819,0.0003168999999999,69.9984,141.4838,266.4227,93.6569,5.3744e-05,5.24e-06,0.0,0 STARLINK-3084,1 49136U 21082G   22154.40384520  .00000524  00000-0  53744-4 0  9994,2 49136  69.9984 141.4838 0003169 266.4227  93.6569 14.96712819 40490,6955.198,96.211,579.2669999999998,574.859,0.0
49136.0,STARLINK-3084,PAYLOAD,2022-06-04 03:20:09,14.967153,0.0003143,69.9987,139.6349,267.1236,92.9562,5.588600000000001e-05,5.48e-06,0.0,0 STARLINK-3084,1 49136U 21082G   22155.13899603  .00000548  00000-0  55886-4 0  9993,2 49136  69.9987 139.6349 0003143 267.1236  92.9562 14.96715300 40605,6955.191,96.211,579.242,574.87,0.0
49136.0,STARLINK-3084,PAYLOAD,2022-06-04 09:45:06,14.96716012,0.0003134,69.9986,138.9626,266.9552,93.1248,5.9788e-05,5.93e-06,0.0,0 STARLINK-3084,1 49136U 21082G   22155.40632338  .00000593  00000-0  59788-4 0  9998,2 49136  69.9986 138.9626 0003134 266.9552  93.1248 14.96716012 40641,6955.189,96.211,579.2330000000002,574.874,0.0
49136.0,STARLINK-3084,PAYLOAD,2022-06-05 22:00:00,14.96721106,0.0003139,70.0007,135.1642,261.5975,314.2535,0.0020737,0.00023728,0.0,0 STARLINK-3084,1 49136U 21082G   22156.91667824  .00023728  00000-0  20737-2 0  9998,2 49136  70.0007 135.1642 0003139 261.5975 314.2535 14.96721106 40860,6955.1730000000025,96.21,579.221,574.854,0.0
49136.0,STARLINK-3084,PAYLOAD,2022-06-06 14:00:01,14.96749523,0.0003109,70.0004,133.4874,266.5399,300.4336,-0.0042198,-0.00048102,0.0,0 STARLINK-3084,1 49136U 21082G   22157.58334491 -.00048102  00000-0 -42198-2 0  9993,2 49136  70.0004 133.4874 0003109 266.5399 300.4336 14.96749523 40967,6955.085,96.208,579.112,574.7869999999998,0.0
49136.0,STARLINK-3084,PAYLOAD,2022-06-06 20:00:01,14.967015599999998,0.0003178,70.0006,132.8587,262.1753,211.4816,0.005414,0.0006241,0.0,0 STARLINK-3084,1 49136U 21082G   22157.83334491  .00062410  00000-0  54140-2 0  9997,2 49136  70.0006 132.8587 0003178 262.1753 211.4816 14.96701560  1303,6955.233,96.212,579.309,574.888,0.0
49136.0,STARLINK-3084,PAYLOAD,2022-06-07 05:07:04,14.96727603,0.0003109,69.9987,131.9031,265.5117,94.5686,6.6354e-05,6.68e-06,0.0,0 STARLINK-3084,1 49136U 21082G   22158.21324778  .00000668  00000-0  66354-4 0  9996,2 49136  69.9987 131.9031 0003109 265.5117  94.5686 14.96727603 41065,6955.153,96.21,579.18,574.855,0.0
49136.0,STARLINK-3084,PAYLOAD,2022-06-07 08:19:33,14.9672852,0.0003088,69.9987,131.5668,265.4633,94.6173,7.5873e-05,7.77e-06,0.0,0 STARLINK-3084,1 49136U 21082G   22158.34690983  .00000777  00000-0  75873-4 0  9991,2 49136  69.9987 131.5668 0003088 265.4633  94.6173 14.96728520 41088,6955.15,96.21,579.163,574.867,0.0
49136.0,STARLINK-3084,PAYLOAD,2022-06-08 08:23:07,14.96719974,0.0003102,69.9991,129.0457,265.5891,94.4912,-6.2717e-05,-8.09e-06,0.0,0 STARLINK-3084,1 49136U 21082G   22159.34939127 -.00000809  00000-0 -62717-4 0  9999,2 49136  69.9991 129.0457 0003102 265.5891  94.4912 14.96719974 41234,6955.176,96.21,579.1990000000002,574.884,0.0
49136.0,STARLINK-3084,PAYLOAD,2022-06-08 14:48:04,14.96720022,0.0003105,69.9991,128.3733,265.5825,94.4979,-6.6835e-05,-8.57e-06,0.0,0 STARLINK-3084,1 49136U 21082G   22159.61671826 -.00000857  00000-0 -66835-4 0  9996,2 49136  69.9991 128.3733 0003105 265.5825  94.4979 14.96720022 41276,6955.176,96.21,579.201,574.881,0.0
49136.0,STARLINK-3084,PAYLOAD,2022-06-09 10:02:55,14.96723575,0.0003132,69.999,126.3563,265.6214,94.4586,-4.0883e-05,-5.6e-06,0.0,0 STARLINK-3084,1 49136U 21082G   22160.41869555 -.00000560  00000-0 -40883-4 0  9990,2 49136  69.9990 126.3563 0003132 265.6214  94.4586 14.96723575 41390,6955.165,96.21,579.2080000000002,574.852,0.0
49136.0,STARLINK-3084,PAYLOAD,2022-06-09 14:51:38,14.96721836,0.0003049,69.9991,125.852,265.4216,94.6594,4.3795e-07,-8.7e-07,0.0,0 STARLINK-3084,1 49136U 21082G   22160.61919053 -.00000087  00000-0  43795-6 0  9991,2 49136  69.9991 125.8520 0003049 265.4216  94.6594 14.96721836 41428,6955.17,96.21,579.156,574.915,0.0
49136.0,STARLINK-3084,PAYLOAD,2022-06-10 08:30:14,14.96721689,0.0003116,69.999,124.0031,265.1845,94.8958,0.00011479,1.223e-05,0.0,0 STARLINK-3084,1 49136U 21082G   22161.35433597  .00001223  00000-0  11479-3 0  9990,2 49136  69.9990 124.0031 0003116 265.1845  94.8958 14.96721689 41539,6955.170999999999,96.21,579.203,574.869,0.0
49136.0,STARLINK-3084,PAYLOAD,2022-06-10 14:55:11,14.96719652,0.0003051,69.9989,123.3308,264.4788,95.6022,0.0001803,1.973e-05,0.0,0 STARLINK-3084,1 49136U 21082G   22161.62166296  .00001973  00000-0  18030-3 0  9991,2 49136  69.9989 123.3308 0003051 264.4788  95.6022 14.96719652 41574,6955.177,96.21,579.164,574.92,0.0
49136.0,STARLINK-3084,PAYLOAD,2022-06-11 05:21:20,14.96712842,0.000308,69.9993,121.8182,264.1807,95.9,-4.5277e-05,-6.1e-06,0.0,0 STARLINK-3084,1 49136U 21082G   22162.22315970 -.00000610  00000-0 -45277-4 0  9996,2 49136  69.9993 121.8182 0003080 264.1807  95.9000 14.96712842 41666,6955.198,96.211,579.206,574.9209999999998,0.0
49136.0,STARLINK-3084,PAYLOAD,2022-06-11 21:23:43,14.967158,0.0003174,69.9992,120.1374,264.5109,95.5688,-2.6157e-05,-3.91e-06,0.0,0 STARLINK-3084,1 49136U 21082G   22162.89147712 -.00000391  00000-0 -26157-4 0  9998,2 49136  69.9992 120.1374 0003174 264.5109  95.5688 14.96715800 41769,6955.189,96.211,579.262,574.847,0.0
49136.0,STARLINK-3084,PAYLOAD,2022-06-12 07:01:09,14.96719938,0.0003153,69.9991,119.1288,264.2532,95.8266,-2.8685e-05,-4.2e-06,0.0,0 STARLINK-3084,1 49136U 21082G   22163.29246593 -.00000420  00000-0 -28685-4 0  9991,2 49136  69.9991 119.1288 0003153 264.2532  95.8266 14.96719938 41822,6955.176,96.21,579.234,574.8480000000002,0.0
49136.0,STARLINK-3084,PAYLOAD,2022-06-12 21:27:17,14.96717475,0.0003154,69.9991,117.6161,264.1683,95.9116,9.9663e-05,1.049e-05,0.0,0 STARLINK-3084,1 49136U 21082G   22163.89395044  .00001049  00000-0  99663-4 0  9993,2 49136  69.9991 117.6161 0003154 264.1683  95.9116 14.96717475 41911,6955.184,96.211,579.243,574.855,0.0
49136.0,STARLINK-3084,PAYLOAD,2022-06-13 07:04:42,14.96718174,0.0003145,69.999,116.6077,264.1676,95.9123,0.00012276,1.314e-05,0.0,0 STARLINK-3084,1 49136U 21082G   22164.29494091  .00001314  00000-0  12276-3 0  9999,2 49136  69.9990 116.6077 0003145 264.1676  95.9123 14.96718174 41978,6955.182,96.21,579.234,574.859,0.0
49136.0,STARLINK-3084,PAYLOAD,2022-06-13 13:29:40,14.96709022,0.0003166,69.9989,115.9352,264.1653,95.9144,-4.6568e-06,-1.45e-06,0.0,0 STARLINK-3084,1 49136U 21082G   22164.56227776 -.00000145  00000-0 -46568-5 0  9999,2 49136  69.9989 115.9352 0003166 264.1653  95.9144 14.96709022 42013,6955.21,96.211,579.2769999999998,574.873,0.0
49136.0,STARLINK-3084,PAYLOAD,2022-06-13 21:30:52,14.96712182,0.0003093,69.9992,115.0949,263.7573,96.3233,-6.7947e-06,-1.69e-06,0.0,0 STARLINK-3084,1 49136U 21082G   22164.89643693 -.00000169  00000-0 -67947-5 0  9995,2 49136  69.9992 115.0949 0003093 263.7573  96.3233 14.96712182 42065,6955.2,96.211,579.217,574.914,0.0
49136.0,STARLINK-3084,PAYLOAD,2022-06-14 05:32:03,14.96717011,0.0003152,69.9989,114.254,265.2226,94.8572,3.689e-05,3.31e-06,0.0,0 STARLINK-3084,1 49136U 21082G   22165.23059325  .00000331  00000-0  36890-4 0  9998,2 49136  69.9989 114.2540 0003152 265.2226  94.8572 14.96717011 42118,6955.185,96.211,579.243,574.8580000000002,0.0
49136.0,STARLINK-3084,PAYLOAD,2022-06-14 13:33:14,14.96721308,0.0003102,69.9987,113.4139,263.7717,96.3088,5.4162e-05,5.28e-06,0.0,0 STARLINK-3084,1 49136U 21082G   22165.56474914  .00000528  00000-0  54162-4 0  9999,2 49136  69.9987 113.4139 0003102 263.7717  96.3088 14.96721308 42162,6955.172,96.21,579.195,574.88,0.0
49136.0,STARLINK-3084,PAYLOAD,2022-06-15 13:36:49,14.96710082,0.0002953,69.9995,110.8928,262.3785,97.7038,2.478300000000001e-05,1.92e-06,0.0,0 STARLINK-3084,1 49136U 21082G   22166.56723712  .00000192  00000-0  24783-4 0  9996,2 49136  69.9995 110.8928 0002953 262.3785  97.7038 14.96710082 42315,6955.206999999999,96.211,579.126,575.018,0.0
49136.0,STARLINK-3084,PAYLOAD,2022-06-19 12:14:51,14.9671792,0.0002853999999999,70.0,100.9763,260.4903,99.5933,0.0001264999999999,1.357e-05,0.0,0 STARLINK-3084,1 49136U 21082G   22170.51031947  .00001357  00000-0  12650-3 0  9991,2 49136  70.0000 100.9763 0002854 260.4903  99.5933 14.96717920 42900,6955.183000000001,96.211,579.033,575.063,0.0
49136.0,STARLINK-3084,PAYLOAD,2022-06-20 01:04:46,14.967112300000002,0.0002803,70.0003,99.6317,261.2882,98.7958,0.00011806,1.26e-05,0.0,0 STARLINK-3084,1 49136U 21082G   22171.04498039  .00001260  00000-0  11806-3 0  9994,2 49136  70.0003  99.6317 0002803 261.2882  98.7958 14.96711230 42985,6955.203,96.211,579.018,575.119,0.0
49136.0,STARLINK-3084,PAYLOAD,2022-06-20 12:18:26,14.96713364,0.0002827,70.0002,98.4554,260.496,99.5878,8.1791e-05,8.45e-06,0.0,0 STARLINK-3084,1 49136U 21082G   22171.51280496  .00000845  00000-0  81791-4 0  9991,2 49136  70.0002  98.4554 0002827 260.4960  99.5878 14.96713364 43057,6955.196999999999,96.211,579.028,575.095,0.0
